HST                     
1 20580U 90037B   21219.36663115  .00000482  00000-0  18153-4 0  9996
2 20580  28.4701  88.1874 0002540 249.8952 273.0840 15.09698678518710
POLAR                   
1 23802U 96013A   21218.80525135  .00000321  00000-0  00000-0 0  9993
2 23802  78.7162 244.8812 5977950 269.5170  26.2372  1.29847083121805
SWAS                    
1 25560U 98071A   21218.97105067  .00000171  00000-0  24453-4 0  9993
2 25560  69.8984  58.0170 0005265  65.8255 294.3451 14.94112835231040
CXO                     
1 25867U 99040B   21221.00234936  .00000622  00000-0  00000-0 0  9995
2 25867  53.8442 253.0842 8405282 226.8086   0.4704  0.37807353 10643
XMM-NEWTON              
1 25989U 99066A   21220.37641174  .00000238  00000-0  00000-0 0  9996
2 25989  70.7306 310.9746 6502422  89.9464   0.2744  0.50137207 14118
TERRA                   
1 25994U 99068A   21219.39897279  .00000053  00000-0  21833-4 0  9999
2 25994  98.1739 292.8844 0001318  99.8113  30.6967 14.57129340150765
CLUSTER II-FM7 (SAMBA)  
1 26410U 00041A   21221.75363803  .00000020  00000-0  00000-0 0  9993
2 26410 132.9932 344.9442 5010027 193.1792 359.1362  0.44192237 12432
CLUSTER II-FM6 (SALSA)  
1 26411U 00041B   21221.74870527  .00000016  00000-0  00000-0 0  9994
2 26411 133.9489 346.9799 6531411 197.8647 359.0998  0.44214055 12475
CLUSTER II-FM5 (RUMBA)  
1 26463U 00045A   21221.75204558  .00000086  00000-0  00000-0 0  9998
2 26463 137.5751 347.0325 6081624 198.2344 359.1492  0.44214399 12365
CLUSTER II-FM8 (TANGO)  
1 26464U 00045B   21221.75305216  .00000020  00000-0  00000-0 0  9990
2 26464 132.9971 344.9390 5006145 193.1726 359.1368  0.44219825 12449
ODIN                    
1 26702U 01007A   21219.28713867  .00000162  00000-0  14368-4 0  9997
2 26702  97.5360 234.8924 0009028 289.3424  70.6828 15.08596684118892
TIMED                   
1 26998U 01055B   21219.36165725  .00000077  00000-0  12363-4 0  9998
2 26998  74.0721 185.1627 0001454 226.4155 133.6905 14.88329653 66273
RHESSI                  
1 27370U 02004A   21219.23465002  .00002697  00000-0  80656-4 0  9995
2 27370  38.0324 146.8824 0010046 147.7470 212.3918 15.35404764 78207
INTEGRAL                
1 27540U 02048A   21215.83031893  .00000397  00000-0  00000+0 0  9996
2 27540  65.7062  81.0427 8989609 299.7299   1.6408  0.37574741 19944
CORIOLIS                
1 27640U 03001A   21219.26688060  .00000011  00000-0  25976-4 0  9999
2 27640  98.7214 228.2533 0013029 282.5436  87.9457 14.19077871962419
SORCE                   
1 27651U 03004A   21219.35439669  .00000079  00000-0  22367-4 0  9998
2 27651  39.9945 170.3116 0021625  64.4385 295.8637 14.89341465  6222
MOST                    
1 27843U 03031D   21219.30865756 -.00000006  00000-0  17522-4 0  9994
2 27843  98.7085 226.5245 0009584 340.7789  19.3025 14.20641636938646
SCISAT 1                
1 27858U 03036A   21219.32235219  .00000025  00000-0  85339-5 0  9994
2 27858  73.9323  84.1878 0008392 203.2812 156.7984 14.77362863969039
SWIFT                   
1 28485U 04047A   21219.06463942  .00000963  00000-0  34827-4 0  9997
2 28485  20.5580 354.4672 0010861 276.6534  83.2664 15.05071275916108
FORMOSAT-3 FM6          
1 29047U 06011A   21219.35518062  .00000041  00000-0  32157-4 0  9992
2 29047  71.9801 341.0503 0049037  63.5005 297.1148 14.28834728800690
FORMOSAT-3 FM1          
1 29048U 06011B   21219.38403220  .00000082  00000-0  48726-4 0  9999
2 29048  71.9647 251.4168 0043180  20.8064 339.4817 14.28791176803172
FORMOSAT-3 FM5          
1 29049U 06011C   21219.01246810  .00000063  00000-0  41018-4 0  9996
2 29049  72.0199  66.1908 0034010  45.0999 315.2889 14.28873451798911
FORMOSAT-3 FM3          
1 29050U 06011D   21219.32316677  .00000089  00000-0  29044-4 0  9994
2 29050  72.0158 169.0923 0051724 288.2435  71.3093 14.59096618816964
FORMOSAT-3 FM4          
1 29051U 06011E   21219.35238943  .00000065  00000-0  41288-4 0  9995
2 29051  72.0067 326.7463 0069907 285.4569  73.8854 14.28905031801548
FORMOSAT-3 FM2          
1 29052U 06011F   21219.25153056  .00000031  00000-0  28388-4 0  9995
2 29052  72.0342  42.3985 0040254   2.7244 357.4104 14.29015878799052
CLOUDSAT                
1 29107U 06016A   21219.37798283  .00000073  00000-0  23560-4 0  9994
2 29107  98.2816 172.5124 0004806 170.0951 190.0346 14.63393528813119
CALIPSO                 
1 29108U 06016B   21219.34535007  .00000095  00000-0  28152-4 0  9991
2 29108  98.2787 172.2353 0001384  77.5460 282.5896 14.62574454813106
HINODE (SOLAR-B)        
1 29479U 06041A   21219.05343486  .00000085  00000-0  24984-4 0  9994
2 29479  98.1348 233.0263 0020217 132.5524 227.7390 14.64577170794731
SJ-6C                   
1 29505U 06046A   21219.56208141  .00000532  00000-0  53650-4 0  9992
2 29505  97.7999 237.4847 0006434  88.5271 271.6671 14.95213098805786
SJ-6D                   
1 29506U 06046B   21219.57881708 -.00000457  00000-0 -37857-4 0  9999
2 29506  97.8190 237.7250 0002542 143.0393 217.1000 14.93623046805282
AGILE                   
1 31135U 07013A   21219.10292200  .00002593  00000-0  42194-4 0  9998
2 31135   2.4666 180.9162 0011520 199.5814 160.3797 15.33793605428562
AIM                     
1 31304U 07015A   21219.27690186  .00000969  00000-0  56375-4 0  9992
2 31304  97.8639 122.6651 0005845  30.5782 329.5789 15.14580351783605
FGRST (GLAST)           
1 33053U 08029A   21219.17890583  .00000489  00000-0  11022-4 0  9990
2 33053  25.5817 148.8575 0012491 139.0503 221.0972 15.11561670726089
WISE                    
1 36119U 09071A   21219.34698132  .00000978  00000-0  35064-4 0  9994
2 36119  97.2807 254.9705 0002613  25.4131 334.7239 15.31063487647416
SDO                     
1 36395U 10005A   21219.25173925 -.00000090  00000-0  00000-0 0  9991
2 36395  31.0548 114.3694 0001033 321.3664 228.6384  1.00276977 42265
CRYOSAT 2               
1 36508U 10013A   21219.39293641  .00000029  00000-0  65424-5 0  9996
2 36508  92.0119 208.1142 0004007 216.2626 143.8310 14.51908218600566
X-SAT                   
1 37389U 11015C   21219.58313396 -.00000054  00000-0 -53485-5 0  9992
2 37389  98.3790 263.0713 0014771 147.6725 212.5364 14.24389893535526
GCOM-W1 (SHIZUKU)       
1 38337U 12025A   21219.42211508  .00000025  00000-0  15548-4 0  9996
2 38337  98.2101 159.3816 0002226  93.7950  53.4233 14.57109358490584
NUSTAR                  
1 38358U 12031A   21218.95292910  .00000987  00000-0  29117-4 0  9993
2 38358   6.0262 130.2409 0011170 122.9161 237.2043 14.88573112497906
NEOSSAT                 
1 39089U 13009D   21219.39519236  .00000032  00000-0  26548-4 0  9999
2 39089  98.4402  58.2597 0012269 127.7451 232.4848 14.34575986442183
IRIS                    
1 39197U 13033A   21219.39984079  .00000085  00000-0  18768-4 0  9990
2 39197  97.9670  43.1739 0026803 327.4700  32.4859 14.78880554437553
HISAKI (SPRINT-A)       
1 39253U 13049A   21219.34964188  .00000052  00000-0 -13464-4 0  9997
2 39253  29.7180 240.9104 0137344  31.8769 329.0030 13.55248893390464
CASSIOPE                
1 39265U 13055A   21219.35999535  .00003041  00000-0  83175-4 0  9998
2 39265  80.9636 238.6040 0648034 164.2587 197.9847 14.32563404407288
STSAT-3                 
1 39422U 13066G   21219.49937759 -.00000028  00000-0  25128-5 0  9998
2 39422  97.4779 236.6231 0021354 246.9648 112.9307 14.89993259419086
SWARM B                 
1 39451U 13067A   21219.35231437  .00000393  00000-0  15609-4 0  9992
2 39451  87.7581 155.4485 0004062  83.0226 277.1481 15.22082209413161
SWARM A                 
1 39452U 13067B   21219.37554619  .00001478  00000-0  29535-4 0  9993
2 39452  87.3637 339.1977 0002634 105.7530 254.4019 15.45837392433400
SWARM C                 
1 39453U 13067C   21219.37550220  .00001472  00000-0  29393-4 0  9994
2 39453  87.3489 339.3084 0002635 105.8290 254.3258 15.45837577433366
BRITE-CA1 (TORONTO)     
1 40020U 14033L   21219.35972274  .00000071  00000-0  20381-4 0  9997
2 40020  97.7465  30.0395 0087153 184.5071 175.5359 14.66756995381618
OCO 2                   
1 40059U 14035A   21219.39075336  .00000016  00000-0  13530-4 0  9995
2 40059  98.2106 160.0931 0001479  78.8068 281.3297 14.57123091377590
BRITE-PL2 (HEWELIUSZ)   
1 40119U 14049B   21219.31263057  .00000127  00000-0  21460-4 0  9992
2 40119  97.8891 313.2678 0017252 185.1002 175.0040 14.84680896377393
RESURS P2               
1 40360U 14087A   21219.58116663  .00001052  00000-0  33860-4 0  9996
2 40360  97.2284 306.0204 0010684 128.3505 344.0367 15.34389720370105
MMS 1                   
1 40482U 15011C   21216.33446953 -.00002145  00000-0  00000-0 0  9998
2 40482  33.6423 115.8707 8439305  35.3773  46.3383  0.28535625 12400
MMS 2                   
1 40483U 15011A   21218.99487269 -.00002079  00000-0  00000+0 0  9993
2 40483  33.5985 115.7604 8437074  35.5261 319.5597  0.28535989 12374
MMS 3                   
1 40484U 15011C   21207.35416667 -.00001814  00000-0  00000-0 0  9993
2 40484  33.6518 116.1461 8439788  34.9746 204.2805  0.28447874 12118
MMS 4                   
1 40485U 15011D   21218.40391674 -.00002108  00000-0  00000+0 0  9998
2 40485  34.6464 115.6607 8429931  35.5981 258.8592  0.28535686 12378
ASTROSAT                
1 40930U 15052A   21218.69314988  .00000729  00000-0  13216-4 0  9996
2 40930   5.9963 262.4011 0008536  18.9240 341.1205 14.76384591316578
DAMPE                   
1 41173U 15078A   21219.54010365  .00000098  00000-0  69232-5 0  9990
2 41173  97.3516 210.7274 0012384 220.7565 288.1286 15.24034094313764
PISAT                   
1 41784U 16059B   21219.37265893  .00000089  00000-0  25876-4 0  9992
2 41784  97.9633 269.1809 0033317  82.2940 278.2044 14.63646257259748
HXMT (HUIYAN)           
1 42758U 17034A   21219.55015942  .00000341  00000-0  34583-4 0  9992
2 42758  43.0176 272.6458 0007262 121.0732  23.0611 15.09258394228737
FLYING LAPTOP           
1 42831U 17042G   21219.55517706 -.00000448  00000-0 -39603-4 0  9996
2 42831  97.4651  86.5978 0013547 343.5128  16.5644 14.91324415221309
PICSAT                  
1 43132U 18004X   21219.07485168  .00001639  00000-0  66341-4 0  9993
2 43132  97.4074 293.1647 0009866  38.9676 321.2272 15.26083670198405
ZHANGZHENG-1 (CSES)     
1 43194U 18015C   21219.57092054  .00001396  00000-0  66067-4 0  9991
2 43194  97.4845 346.5836 0014186  92.2691 329.8279 15.20947605194917
ICON                    
1 44628U 19068A   21219.31932034  .00000450  00000-0  23652-4 0  9999
2 44628  26.9883 199.9094 0018996 168.6570 191.4419 14.91987854 99596
SALSAT                  
1 46495U 20068K   21219.57427343  .00001135  00000-0  87580-4 0  9996
2 46495  97.6935 156.7703 0015791 259.7382 100.2062 15.03507942 47016
